SAUDISAT 1C             
1 27607U 02058C   17294.89479361  .00000048  00000-0  27424-4 0  9992
2 27607  64.5543  98.3511 0036357  36.0194 324.3347 14.75378949797674
SAUDISAT 2              
1 28371U 04025F   17295.51564625  .00000052  00000-0  22912-4 0  9997
2 28371  98.1502 246.6571 0024758 308.2509  51.6444 14.54271485706347
SAUDISAT 3              
1 31118U 07012B   17295.37460543  .00000031  00000-0  13024-4 0  9998
2 31118  97.7416 282.1246 0013841 218.5103 141.5118 14.69074018563681
PISAT                   
1 41784U 16059B   17294.73806823  .00000162  00000-0  40421-4 0  9999
2 41784  98.1532 354.9477 0033204 122.2415 238.2013 14.63265212 57083
FLYING LAPTOP           
1 42831U 17042G   17295.35068240  .00000449  00000-0  51205-4 0  9998
2 42831  97.6074 201.4446 0012669 271.7159  88.2609 14.90725863 14890
